NORAD_CAT_ID,OBJECT_NAME,OBJECT_TYPE,EPOCH,MEAN_MOTION,ECCENTRICITY,INCLINATION,RA_OF_ASC_NODE,ARG_OF_PERICENTER,MEAN_ANOMALY,BSTAR,MEAN_MOTION_DOT,MEAN_MOTION_DDOT,TLE_LINE0,TLE_LINE1,TLE_LINE2,SEMIMAJOR_AXIS,PERIOD,APOGEE,PERIGEE,DECAYED
53598.0,STARLINK-4676,PAYLOAD,2024-07-25 11:18:07,15.08839824,0.0001141,53.2073,22.4285,73.7579,286.3538,0.00014176,1.969e-05,0.0,0 STARLINK-4676,1 53598U 22104L   24207.47091874  .00001969  00000-0  14176-3 0  9991,2 53598  53.2073  22.4285 0001141  73.7579 286.3538 15.08839824106213,6917.881,95.438,540.535,538.957,0.0
53598.0,STARLINK-4676,PAYLOAD,2024-07-26 04:47:20,15.08859923,0.0001257,53.209,19.1585,90.9019,269.2117,0.00040771,6.21e-05,0.0,0 STARLINK-4676,1 53598U 22104L   24208.19954613  .00006210  00000-0  40771-3 0  9994,2 53598  53.2090  19.1585 0001257  90.9019 269.2117 15.08859923105636,6917.819,95.436,540.554,538.815,0.0
53598.0,STARLINK-4676,PAYLOAD,2024-07-26 20:41:12,15.08837564,0.000141,53.2114,16.185,91.942,268.1734,-5.4906e-05,-1.162e-05,0.0,0 STARLINK-4676,1 53598U 22104L   24208.86195271 -.00001162  00000-0 -54906-4 0  9994,2 53598  53.2114  16.1850 0001410  91.9420 268.1734 15.08837564105734,6917.888,95.438,540.728,538.777,0.0
53598.0,STARLINK-4676,PAYLOAD,2024-07-26 22:16:35,15.08851866,0.0001822,53.2134,15.8922,79.1873,280.9324,0.00017404,2.484e-05,0.0,0 STARLINK-4676,1 53598U 22104L   24208.92819180  .00002484  00000-0  17404-3 0  9990,2 53598  53.2134  15.8922 0001822  79.1873 280.9324 15.08851866105748,6917.844,95.437,540.97,538.449,0.0
53598.0,STARLINK-4676,PAYLOAD,2024-07-27 10:59:41,15.08833348,0.0001586,53.2138,13.5109,83.0166,277.1006,-0.00017733,-3.109e-05,0.0,0 STARLINK-4676,1 53598U 22104L   24209.45812031 -.00003109  00000-0 -17733-3 0  9999,2 53598  53.2138  13.5109 0001586  83.0166 277.1006 15.08833348105829,6917.901,95.438,540.863,538.669,0.0
53598.0,STARLINK-4676,PAYLOAD,2024-07-28 17:12:01,15.08849084,0.000131,53.2164,7.864,68.2206,291.8925,0.00034522,5.212e-05,0.0,0 STARLINK-4676,1 53598U 22104L   24210.71668173  .00005212  00000-0  34522-3 0  9996,2 53598  53.2164   7.8640 0001310  68.2206 291.8925 15.08849084106018,6917.853,95.437,540.624,538.811,0.0
53598.0,STARLINK-4676,PAYLOAD,2024-07-29 10:41:15,15.08850277,0.0001136,53.2157,4.5931,62.097,298.0137,0.00043843,6.699e-05,0.0,0 STARLINK-4676,1 53598U 22104L   24211.44532193  .00006699  00000-0  43843-3 0  9995,2 53598  53.2157   4.5931 0001136  62.0970 298.0137 15.08850277106125,6917.849,95.437,540.5,538.928,0.0
53598.0,STARLINK-4676,PAYLOAD,2024-07-29 18:38:11,15.08853446,9.69e-05,53.2167,3.104,96.0925,264.0178,0.00038749,5.887e-05,0.0,0 STARLINK-4676,1 53598U 22104L   24211.77651766  .00005887  00000-0  38749-3 0  9996,2 53598  53.2167   3.1040 0000969  96.0925 264.0178 15.08853446106862,6917.839,95.437,540.375,539.034,0.0
53598.0,STARLINK-4676,PAYLOAD,2024-07-30 02:35:06,15.08849244,0.0001041,53.217,1.6165,94.8408,265.2703,0.00022914,3.362e-05,0.0,0 STARLINK-4676,1 53598U 22104L   24212.10771756  .00003362  00000-0  22914-3 0  9999,2 53598  53.2170   1.6165 0001041  94.8408 265.2703 15.08849244106229,6917.852,95.437,540.437,538.997,0.0
53598.0,STARLINK-4676,PAYLOAD,2024-07-30 10:32:02,15.08847033,0.000156,53.2164,0.1326,97.2115,262.9055,0.00017299,2.467e-05,0.0,0 STARLINK-4676,1 53598U 22104L   24212.43891996  .00002467  00000-0  17299-3 0  9999,2 53598  53.2164   0.1326 0001560  97.2115 262.9055 15.08847033106962,6917.859,95.437,540.803,538.645,0.0
53598.0,STARLINK-4676,PAYLOAD,2024-07-30 16:53:35,15.08851221,0.0002078,53.2172,358.9387,90.0875,270.0355,0.00048064,7.372e-05,0.0,0 STARLINK-4676,1 53598U 22104L   24212.70387924  .00007372  00000-0  48064-3 0  9994,2 53598  53.2172 358.9387 0002078  90.0875 270.0355 15.08851221107004,6917.846,95.437,541.149,538.274,0.0
53598.0,STARLINK-4676,PAYLOAD,2024-07-31 02:25:53,15.08848955,4.72e-05,53.2162,357.1562,35.125,324.9774,0.00034111,5.147e-05,0.0,0 STARLINK-4676,1 53598U 22104L   24213.10131810  .00005147  00000-0  34111-3 0  9996,2 53598  53.2162 357.1562 0000472  35.1250 324.9774 15.08848955106375,6917.853,95.437,540.045,539.391,0.0
53598.0,STARLINK-4676,PAYLOAD,2024-07-31 13:33:36,15.08828685,0.0001143,53.2172,355.0747,104.5513,255.5606,-7.7151e-05,-1.515e-05,0.0,0 STARLINK-4676,1 53598U 22104L   24213.56500744 -.00001515  00000-0 -77151-4 0  9991,2 53598  53.2172 355.0747 0001143 104.5513 255.5606 15.08828685106446,6917.915,95.438,540.571,538.989,0.0
53598.0,STARLINK-4676,PAYLOAD,2024-07-31 16:44:22,15.08832004,0.000103,53.2155,354.4821,113.0043,247.1057,1.6544e-06,-2.61e-06,0.0,0 STARLINK-4676,1 53598U 22104L   24213.69748802 -.00000261  00000-0  16544-5 0  9990,2 53598  53.2155 354.4821 0001030 113.0043 247.1057 15.08832004107157,6917.905,95.438,540.482,539.057,0.0
53598.0,STARLINK-4676,PAYLOAD,2024-08-01 02:16:41,15.0884614,0.0001125,53.2184,352.6972,101.6673,258.4445,0.00034252,5.168e-05,0.0,0 STARLINK-4676,1 53598U 22104L   24214.09492573  .00005168  00000-0  34252-3 0  9990,2 53598  53.2184 352.6972 0001125 101.6673 258.4445 15.08846140106525,6917.862,95.437,540.505,538.948,0.0
53598.0,STARLINK-4676,PAYLOAD,2024-08-01 16:35:09,15.08861128,9.84e-05,53.2171,350.0206,99.6233,260.4871,0.00064582,0.00010011,0.0,0 STARLINK-4676,1 53598U 22104L   24214.69107900  .00010011  00000-0  64582-3 0  9995,2 53598  53.2171 350.0206 0000984  99.6233 260.4871 15.08861128107309,6917.816,95.436,540.362,539.0,0.0
53598.0,STARLINK-4676,PAYLOAD,2024-08-02 13:15:10,15.08832822,0.0001427,53.2168,346.155,91.9098,268.2057,-3.4913e-05,-8.43e-06,0.0,0 STARLINK-4676,1 53598U 22104L   24215.55220732 -.00000843  00000-0 -34913-4 0  9990,2 53598  53.2168 346.1550 0001427  91.9098 268.2057 15.08832822106748,6917.902,95.438,540.755,538.78,0.0
53598.0,STARLINK-4676,PAYLOAD,2024-08-02 14:50:33,15.08833909,0.0001243,53.2166,345.8577,94.1034,266.0101,0.00011857,1.599e-05,0.0,0 STARLINK-4676,1 53598U 22104L   24215.61844733  .00001599  00000-0  11857-3 0  9998,2 53598  53.2166 345.8577 0001243  94.1034 266.0101 15.08833909107443,6917.899,95.438,540.624,538.904,0.0
53598.0,STARLINK-4676,PAYLOAD,2024-08-02 16:25:57,15.08837894,0.0001279,53.2169,345.5603,92.1376,267.9763,0.00039146,5.947e-05,0.0,0 STARLINK-4676,1 53598U 22104L   24215.68468754  .00005947  00000-0  39146-3 0  9992,2 53598  53.2169 345.5603 0001279  92.1376 267.9763 15.08837894107451,6917.887,95.438,540.637,538.867,0.0
53598.0,STARLINK-4676,PAYLOAD,2024-08-03 13:05:57,15.08855678,0.0001385,53.2169,341.695,88.2336,271.8815,0.0011044,0.0001734,0.0,0 STARLINK-4676,1 53598U 22104L   24216.54580883  .00017340  00000-0  11044-2 0  9992,2 53598  53.2169 341.6950 0001385  88.2336 271.8815 15.08855678106892,6917.832,95.437,540.656,538.739,0.0
53598.0,STARLINK-4676,PAYLOAD,2024-08-03 14:41:20,15.08859217,0.000137,53.2173,341.3973,89.1477,270.9672,0.0011292,0.00017738,0.0,0 STARLINK-4676,1 53598U 22104L   24216.61204764  .00017738  00000-0  11292-2 0  9997,2 53598  53.2173 341.3973 0001370  89.1477 270.9672 15.08859217107591,6917.822,95.436,540.634,538.739,0.0
53598.0,STARLINK-4676,PAYLOAD,2024-08-04 01:49:02,15.08857414,0.0001864,53.2161,339.3199,43.3212,316.7927,0.00073662,0.0001146,0.0,0 STARLINK-4676,1 53598U 22104L   24217.07572746  .00011460  00000-0  73662-3 0  9992,2 53598  53.2161 339.3199 0001864  43.3212 316.7927 15.08857414106972,6917.827,95.436,540.982,538.403,0.0
53598.0,STARLINK-4676,PAYLOAD,2024-08-04 12:56:45,15.0884663,0.0002112,53.217,337.2333,84.2215,275.9018,0.0004002,6.088e-05,0.0,0 STARLINK-4676,1 53598U 22104L   24217.53940984  .00006088  00000-0  40020-3 0  9998,2 53598  53.2170 337.2333 0002112  84.2215 275.9018 15.08846630107047,6917.86,95.437,541.186,538.264,0.0
53598.0,STARLINK-4676,PAYLOAD,2024-08-04 14:32:07,15.0884799,0.0001715,53.2176,336.9328,94.2351,265.8837,0.00029827,4.463e-05,0.0,0 STARLINK-4676,1 53598U 22104L   24217.60564766  .00004463  00000-0  29827-3 0  9993,2 53598  53.2176 336.9328 0001715  94.2351 265.8837 15.08847990107747,6917.856,95.437,540.907,538.535,0.0
53598.0,STARLINK-4676,PAYLOAD,2024-08-04 17:42:54,15.08852484,0.0001795,53.2168,336.3374,94.7333,265.3864,0.00041527,6.329e-05,0.0,0 STARLINK-4676,1 53598U 22104L   24217.73812606  .00006329  00000-0  41527-3 0  9990,2 53598  53.2168 336.3374 0001795  94.7333 265.3864 15.08852484107767,6917.842,95.437,540.949,538.465,0.0
53598.0,STARLINK-4676,PAYLOAD,2024-08-05 12:47:31,15.08853847,0.0001414,53.2184,332.7648,99.0689,261.0463,0.00029459,4.405e-05,0.0,0 STARLINK-4676,1 53598U 22104L   24218.53300053  .00004405  00000-0  29459-3 0  9990,2 53598  53.2184 332.7648 0001414  99.0689 261.0463 15.08853847107884,6917.838,95.437,540.681,538.725,0.0
53598.0,STARLINK-4676,PAYLOAD,2024-08-06 12:38:19,15.08831761,0.0001416,53.2176,328.3081,101.2184,258.8968,-0.00014544,-2.601e-05,0.0,0 STARLINK-4676,1 53598U 22104L   24219.52660896 -.00002601  00000-0 -14544-3 0  9991,2 53598  53.2176 328.3081 0001416 101.2184 258.8968 15.08831761107341,6917.906,95.438,540.75,538.791,0.0
53598.0,STARLINK-4676,PAYLOAD,2024-08-06 14:13:42,15.08831366,0.0001226,53.2163,328.0122,83.092,277.0211,-0.0001204,-2.203e-05,0.0,0 STARLINK-4676,1 53598U 22104L   24219.59284975 -.00002203  00000-0 -12040-3 0  9995,2 53598  53.2163 328.0122 0001226  83.0920 277.0211 15.08831366108047,6917.907,95.438,540.62,538.924,0.0
53598.0,STARLINK-4676,PAYLOAD,2024-08-07 12:29:05,15.0885084,0.0001272,53.2167,323.8524,94.4858,265.628,0.00028506,4.253e-05,0.0,0 STARLINK-4676,1 53598U 22104L   24220.52020575  .00004253  00000-0  28506-3 0  9993,2 53598  53.2167 323.8524 0001272  94.4858 265.6280 15.08850840107492,6917.847,95.437,540.592,538.832,0.0
53598.0,STARLINK-4676,PAYLOAD,2024-08-08 12:19:52,15.0885,0.0001613,53.2174,319.3925,105.8661,254.2509,0.00036106,5.464e-05,0.0,0 STARLINK-4676,1 53598U 22104L   24221.51380730  .00005464  00000-0  36106-3 0  9995,2 53598  53.2174 319.3925 0001613 105.8661 254.2509 15.08850000108333,6917.85,95.437,540.831,538.599,0.0
